IRIDIUM 136             
1 42962U 17061H   24289.47669583 -.00000302  00000+0 -11477-3 0  9990
2 42962  86.3909 280.0218 0002064  92.5318 267.6114 14.34216528367448
